*******************************************************************************
 Revised: July 31, 2013                  Sun                                 10

 PHYSICAL PROPERTIES (updated 2024-Oct-30):
  GM, km^3/s^2          = 132712440041.93938  Mass, 10^24 kg        = ~1988410
  Vol. mean radius, km  = 695700              Volume, 10^12 km^3    = 1412000
  Solar radius (IAU2015)= 695700 km           Mean density, g/cm^3  = 1.408
  Radius (photosphere)  = 696500 km           Angular diam at 1 AU  = 1919.3"
  Photosphere temp., K  = 6600 (bottom)       Photosphere temp., K  = 4400(top)
  Photospheric depth    = ~500 km             Chromospheric depth   = ~2500 km
  Flatness, f           = 0.00005             Adopted sid. rot. per.= 25.38 d
  Surface gravity       =  274.0 m/s^2        Escape speed, km/s    =  617.7
  Pole (RA,DEC), deg.   = (286.13, 63.87)     Obliquity to ecliptic = 7.25 deg.
  Solar constant (1 AU) = 1367.6 W/m^2        Luminosity, 10^24 J/s = 382.8
  Mass-energy conv rate = 4.260 x 10^9 kg/s   Effective temp, K     = 5772
  Sunspot cycle         = 11.4 yr             Cycle 24 sunspot min. = 2008 A.D.

  Motion relative to nearby stars = apex : R.A.= 271 deg.; DEC.= +30 deg.
                                    speed: 19.4 km/s (0.0112 au/day)
  Motion relative to 2.73K BB/CBR = apex : l= 264.7 +- 0.8; b= 48.2 +- 0.5 deg.
                                    speed: 369 +-11 km/s
*******************************************************************************


*******************************************************************************
Ephemeris / WWW_USER Wed May 21 10:41:08 2025 Pasadena, USA      / Horizons
*******************************************************************************
Target body name: Sun (10)                        {source: DE441}
Center body name: Solar System Barycenter (0)     {source: DE441}
Center-site name: BODY CENTER
*******************************************************************************
Start time      : A.D. 1755-Jan-01 00:00:00.0000 TDB
Stop  time      : A.D. 1755-Jan-31 00:00:00.0000 TDB
Step-size       : 1440 minutes
*******************************************************************************
Center geodetic : 0.0, 0.0, 0.0                   {E-lon(deg),Lat(deg),Alt(km)}
Center cylindric: 0.0, 0.0, 0.0                   {E-lon(deg),Dxy(km),Dz(km)}
Center radii    : (undefined)
Output units    : KM-S
Calendar mode   : Mixed Julian/Gregorian
Output type     : GEOMETRIC cartesian states
Output format   : 3 (position, velocity, LT, range, range-rate)
Reference frame : Ecliptic of J2000.0
*******************************************************************************
JDTDB
   X     Y     Z
   VX    VY    VZ
   LT    RG    RR
*******************************************************************************
$$SOE
2362084.500000000 = A.D. 1755-Jan-25 00:00:00.0000 TDB 
 X = 5.963220738994326E+05 Y = 4.166090810157368E+04 Z =-1.417373105503625E+04
 VX= 1.436778297973646E-03 VY= 1.033956057291069E-02 VZ=-2.238126520088743E-05
 LT= 1.994525139483881E+00 RG= 5.979435941086656E+05 RR= 2.153807375716467E-03
2362085.500000000 = A.D. 1755-Jan-26 00:00:00.0000 TDB 
 X = 5.964454268778428E+05 Y = 4.255449276493231E+04 Z =-1.417564604140182E+04
 VX= 1.418605588661741E-03 VY= 1.034525433995045E-02 VZ=-2.194706821957758E-05
 LT= 1.995145484184937E+00 RG= 5.981295687714025E+05 RR= 2.151154278119174E-03
2362086.500000000 = A.D. 1755-Jan-27 00:00:00.0000 TDB 
 X = 5.965672073971232E+05 Y = 4.344856539599082E+04 Z =-1.417752350030037E+04
 VX= 1.400379131560932E-03 VY= 1.035085590345929E-02 VZ=-2.151258931365647E-05
 LT= 1.995765057951562E+00 RG= 5.983153123138112E+05 RR= 2.148457638010072E-03
2362087.500000000 = A.D. 1755-Jan-28 00:00:00.0000 TDB 
 X = 5.966874109057137E+05 Y = 4.434311797285071E+04 Z =-1.417936341145511E+04
 VX= 1.382101078299585E-03 VY= 1.035636399036750E-02 VZ=-2.107792374473737E-05
 LT= 1.996383848472637E+00 RG= 5.985008210451113E+05 RR= 2.145719121175880E-03
2362088.500000000 = A.D. 1755-Jan-29 00:00:00.0000 TDB 
 X = 5.968060330421583E+05 Y = 4.523814236685331E+04 Z =-1.418116576301355E+04
 VX= 1.363773677735831E-03 VY= 1.036177740399146E-02 VZ=-2.064317114965162E-05
 LT= 1.997001843930559E+00 RG= 5.986860914224746E+05 RR= 2.142940486784843E-03
2362089.500000000 = A.D. 1755-Jan-30 00:00:00.0000 TDB 
 X = 5.969230696434815E+05 Y = 4.613363034958821E+04 Z =-1.418293055189652E+04
 VX= 1.345399275334830E-03 VY= 1.036709503358670E-02 VZ=-2.020843485903276E-05
 LT= 1.997619033028254E+00 RG= 5.988711200591235E+05 RR= 2.140123588042046E-03
2362090.500000000 = A.D. 1755-Jan-31 00:00:00.0000 TDB 
 X = 5.970385167534982E+05 Y = 4.702957360075330E+04 Z =-1.418465778408516E+04
 VX= 1.326980312267452E-03 VY= 1.037231586453237E-02 VZ=-1.977382113688532E-05
 LT= 1.998235405016358E+00 RG= 5.990559037324793E+05 RR= 2.137270372710014E-03
